{
    "type": "FeatureCollection",
    "features": [
        {
            "type": "Feature",
            "properties": {},
            "geometry": {
                "type": "Polygon",
                "coordinates": [
                    [
                        [
                            -71.319239,
                            -30.798217
                        ],
                        [
                            -71.319239,
                            -30.853163
                        ],
                        [
                            -71.212557,
                            -30.853163
                        ],
                        [
                            -71.212557,
                            -30.798217
                        ],
                        [
                            -71.319239,
                            -30.798217
                        ]
                    ]
                ]
            }
        }
    ]
}